KUZGTU 1 (RS47S)        
1 57217U 23091AV  26194.58432711  .00007050  00000+0  24178-3 0  9996
2 57217  97.5056 259.3415 0010219  12.0598 348.0885 15.30447134168411
SONATE-2                
1 59112U 24043Q   26194.37823607  .00027473  00000+0  33131-3 0  9995
2 59112  97.5541 346.4234 0006949 111.8848 248.3148 15.60724269131979
MESAT1                  
1 60209U 24125G   26193.56016104  .00047409  00000+0  45928-3 0  9999
2 60209  97.2256  51.6710 0010956 120.7531 239.4810 15.66181054113537
OOV-CUBE (TUBSAT-30)    
1 60240U 24128F   26194.40407738  .00001077  00000+0  94341-4 0  9993
2 60240  61.9937 134.1487 0041355 139.6220 220.7954 15.02869569110055
COLIBRI-S (RS67S)       
1 61746U 24199M   26194.62502188  .00013913  00000+0  26011-3 0  9992
2 61746  97.2959  68.7357 0008796 167.6628 192.4840 15.48806002141502
HORS 3 (RS81S)          
1 61753U 24199U   26194.65110083  .00024118  00000+0  33694-3 0  9996
2 61753  97.2938  71.0498 0006960 160.3538 199.7987 15.56828638141679
HORS 4 (RS82S)          
1 61754U 24199V   26194.65414588  .00035303  00000+0  40040-3 0  9995
2 61754  97.2882  72.4386 0006854 152.6428 207.5193 15.62273009141774
SIT-2086                
1 61764U 24199AF  26194.53281351  .00024197  00000+0  36222-3 0  9999
2 61764  97.2896  71.3140 0008039 149.3548 210.8177 15.54936085138528
HYPERVIEW 1G (RS66S)    
1 61772U 24199AP  26194.59972327  .00168570  00000+0  71648-3 0  9999
2 61772  97.2815  75.8124 0008237 151.4421 208.7302 15.84791404138841
ALTAIR (RS65S)          
1 61779U 24199AW  26194.60485474  .00006433  00000+0  17684-3 0  9999
2 61779  97.2997  63.7859 0011846 202.3454 157.7276 15.37485086141179
ASRTU-1 (AO-123)        
1 61781U 24199AY  26194.61685320  .00004586  00000+0  13267-3 0  9995
2 61781  97.2968  63.0515 0012835 206.6182 153.4404 15.36039311137981
SAMSAT-IONOSPHERE (RS7*)
1 61784U 24199BB  26194.63568232  .00032192  00000+0  39803-3 0  9990
2 61784  97.2905  71.1859 0009014 165.4183 194.7336 15.60015211141688
RTU MIREA 1 (RS51S)     
1 61785U 24199BC  26194.59623515  .00042034  00000+0  44248-3 0  9997
2 61785  97.2891  72.1254 0009123 160.2812 199.8802 15.64131775138594
TEVEL2-4                
1 63213U 25052D   26194.64747267  .00011283  00000+0  32889-3 0  9991
2 63213  97.3876  91.0958 0003679  54.9204 305.2385 15.35531702 74175
TEVEL2-5                
1 63214U 25052E   26194.14966326  .00011850  00000+0  34745-3 0  9999
2 63214  97.3876  90.5369 0003788  56.8499 303.3107 15.35333367 74093
TEVEL2-6                
1 63215U 25052F   26193.70635362  .00012019  00000+0  35290-3 0  9998
2 63215  97.3879  90.0772 0003781  60.8657 299.2965 15.35286778 74025
TEVEL2-1                
1 63217U 25052H   26193.67932412  .00011444  00000+0  34224-3 0  9999
2 63217  97.3853  89.6437 0004432  65.2904 294.8800 15.34718554 74007
TEVEL2-3                
1 63218U 25052J   26194.65094920  .00010730  00000+0  32020-3 0  9991
2 63218  97.3853  90.6416 0004147  64.5751 295.5921 15.34803352 74151
TEVEL2-2                
1 63219U 25052K   26194.65746567  .00010878  00000+0  32511-3 0  9991
2 63219  97.3847  90.6260 0004426  63.9557 296.2141 15.34751821 74154
OTP-2                   
1 63235U 25052AB  26194.61922585  .00003997  00000+0  16623-3 0  9991
2 63235  97.3842  86.6569 0008245  75.3739 284.8412 15.24324980 73891
TEVEL2-9                
1 63237U 25052AD  26194.14738760  .00010512  00000+0  33505-3 0  9990
2 63237  97.3915  89.4327 0007831  62.8126 297.3913 15.32691499 74008
TEVEL2-7                
1 63238U 25052AE  26194.65055022  .00009367  00000+0  30172-3 0  9993
2 63238  97.3910  89.8399 0007866  61.2013 299.0017 15.32385883 74071
TEVEL2-8                
1 63239U 25052AF  26194.65905755  .00009789  00000+0  31532-3 0  9990
2 63239  97.3909  89.8240 0007939  61.9516 298.2528 15.32371934 74071
INNOSAT 16 (RS92S7)     
1 64878U 25155C   26194.63171681  .00003285  00000+0  13145-3 0  9990
2 64878  97.4577 161.6826 0012473  93.1140 267.1526 15.25728228 84709
GEOSCAN 6 (RS92S6)      
1 64879U 25155D   26194.59696153  .00006277  00000+0  21429-3 0  9990
2 64879  97.4568 163.2624 0010003  86.6491 273.5894 15.30634861 84802
GEOSCAN 1 (RS92S1)      
1 64880U 25155E   26194.58868853  .00006889  00000+0  23030-3 0  9998
2 64880  97.4563 163.4260 0009951  86.8897 273.3483 15.31280756 84813
239ALFEROV (RS61S)      
1 64881U 25155F   26194.58442752  .00008894  00000+0  27549-3 0  9992
2 64881  97.4562 164.0750 0009631  86.5592 273.6752 15.33641058 84852
GEOSCAN 2 (RS92S2)      
1 64890U 25155Q   26194.57783197  .00006565  00000+0  21792-3 0  9999
2 64890  97.4561 163.5777 0009105  76.9555 283.2702 15.31538531 84820
GEOSCAN 5 (RS92S5)      
1 64891U 25155R   26194.63329867  .00008588  00000+0  26365-3 0  9995
2 64891  97.4554 164.2717 0008653  90.7112 269.5122 15.33948394 84877
GEOSCAN 4 (RS92S4)      
1 64892U 25155S   26194.61473163  .00008876  00000+0  27096-3 0  9995
2 64892  97.4559 164.3094 0008589  91.0116 269.2110 15.34115272 84874
