OBJECT_NAME,OBJECT_ID,EPOCH,MEAN_MOTION,ECCENTRICITY,INCLINATION,RA_OF_ASC_NODE,ARG_OF_PERICENTER,MEAN_ANOMALY,EPHEMERIS_TYPE,CLASSIFICATION_TYPE,NORAD_CAT_ID,ELEMENT_SET_NO,REV_AT_EPOCH,BSTAR,MEAN_MOTION_DOT,MEAN_MOTION_DDOT
KUZGTU 1 (RS47S),2023-091AV,2026-07-13T14:01:25.862304,15.30447134,.00102191,97.5056,259.3415,12.0598,348.0885,0,U,57217,999,16841,.24177835E-3,.705E-4,0
SONATE-2,2024-043Q,2026-07-13T09:04:39.596448,15.60724269,.00069497,97.5541,346.4234,111.8848,248.3148,0,U,59112,999,13197,.33131433E-3,.27473E-3,0
MESAT1,2024-125G,2026-07-12T13:26:37.913856,15.66181054,.00109567,97.2256,51.6710,120.7531,239.4810,0,U,60209,999,11353,.45928267E-3,.47409E-3,0
OOV-CUBE (TUBSAT-30),2024-128F,2026-07-13T09:41:52.285632,15.02869569,.00413557,61.9937,134.1487,139.6220,220.7954,0,U,60240,999,11005,.94341179E-4,.1077E-4,0
COLIBRI-S (RS67S),2024-199M,2026-07-13T15:00:01.890432,15.48806002,.00087966,97.2959,68.7357,167.6628,192.4840,0,U,61746,999,14150,.26011029E-3,.13913E-3,0
HORS 3 (RS81S),2024-199U,2026-07-13T15:37:35.111712,15.56828638,.00069603,97.2938,71.0498,160.3538,199.7987,0,U,61753,999,14167,.33693864E-3,.24118E-3,0
HORS 4 (RS82S),2024-199V,2026-07-13T15:41:58.204032,15.62273009,.00068549,97.2882,72.4386,152.6428,207.5193,0,U,61754,999,14177,.40040198E-3,.35303E-3,0
SIT-2086,2024-199AF,2026-07-13T12:47:15.087264,15.54936085,.00080395,97.2896,71.3140,149.3548,210.8177,0,U,61764,999,13852,.36222478E-3,.24197E-3,0
HYPERVIEW 1G (RS66S),2024-199AP,2026-07-13T14:23:36.090528,15.84791404,.00082372,97.2815,75.8124,151.4421,208.7302,0,U,61772,999,13884,.71648157E-3,.16857E-2,0
ALTAIR (RS65S),2024-199AW,2026-07-13T14:30:59.449536,15.37485086,.00118461,97.2997,63.7859,202.3454,157.7276,0,U,61779,999,14117,.17684451E-3,.6433E-4,0
ASRTU-1 (AO-123),2024-199AY,2026-07-13T14:48:16.116480,15.36039311,.00128356,97.2968,63.0515,206.6182,153.4404,0,U,61781,999,13798,.13266504E-3,.4586E-4,0
SAMSAT-IONOSPHERE (RS75S),2024-199BB,2026-07-13T15:15:22.952448,15.60015211,.00090145,97.2905,71.1859,165.4183,194.7336,0,U,61784,999,14168,.39802646E-3,.32192E-3,0
RTU MIREA 1 (RS51S),2024-199BC,2026-07-13T14:18:34.716960,15.64131775,.00091237,97.2891,72.1254,160.2812,199.8802,0,U,61785,999,13859,.44248156E-3,.42034E-3,0
TEVEL2-4,2025-052D,2026-07-13T15:32:21.638688,15.35531702,.00036791,97.3876,91.0958,54.9204,305.2385,0,U,63213,999,7417,.32888732E-3,.11283E-3,0
TEVEL2-5,2025-052E,2026-07-13T03:35:30.905664,15.35333367,.00037888,97.3876,90.5369,56.8499,303.3107,0,U,63214,999,7409,.34745321E-3,.1185E-3,0
TEVEL2-6,2025-052F,2026-07-12T16:57:08.952768,15.35286778,.00037818,97.3879,90.0772,60.8657,299.2965,0,U,63215,999,7402,.35290328E-3,.12019E-3,0
TEVEL2-1,2025-052H,2026-07-12T16:18:13.603968,15.34718554,.00044329,97.3853,89.6437,65.2904,294.8800,0,U,63217,999,7400,.3422388E-3,.11444E-3,0
TEVEL2-3,2025-052J,2026-07-13T15:37:22.010880,15.34803352,.00041473,97.3853,90.6416,64.5751,295.5921,0,U,63218,999,7415,.32019628E-3,.1073E-3,0
TEVEL2-2,2025-052K,2026-07-13T15:46:45.033888,15.34751821,.00044261,97.3847,90.6260,63.9557,296.2141,0,U,63219,999,7415,.32510859E-3,.10878E-3,0
OTP-2,2025-052AB,2026-07-13T14:51:41.113440,15.24324980,.00082452,97.3842,86.6569,75.3739,284.8412,0,U,63235,999,7389,.16622742E-3,.3997E-4,0
TEVEL2-9,2025-052AD,2026-07-13T03:32:14.288640,15.32691499,.00078316,97.3915,89.4327,62.8126,297.3913,0,U,63237,999,7400,.33504592E-3,.10512E-3,0
TEVEL2-7,2025-052AE,2026-07-13T15:36:47.539008,15.32385883,.0007866,97.3910,89.8399,61.2013,299.0017,0,U,63238,999,7407,.30172016E-3,.9367E-4,0
TEVEL2-8,2025-052AF,2026-07-13T15:49:02.572320,15.32371934,.00079395,97.3909,89.8240,61.9516,298.2528,0,U,63239,999,7407,.31532285E-3,.9789E-4,0
INNOSAT 16 (RS92S7),2025-155C,2026-07-13T15:09:40.332384,15.25728228,.00124732,97.4577,161.6826,93.1140,267.1526,0,U,64878,999,8470,.1314499E-3,.3285E-4,0
GEOSCAN 6 (RS92S6),2025-155D,2026-07-13T14:19:37.476192,15.30634861,.00100039,97.4568,163.2624,86.6491,273.5894,0,U,64879,999,8480,.21429088E-3,.6277E-4,0
GEOSCAN 1 (RS92S1),2025-155E,2026-07-13T14:07:42.688992,15.31280756,.00099516,97.4563,163.4260,86.8897,273.3483,0,U,64880,999,8481,.23029935E-3,.6889E-4,0
239ALFEROV (RS61S),2025-155F,2026-07-13T14:01:34.537728,15.33641058,.00096315,97.4562,164.0750,86.5592,273.6752,0,U,64881,999,8485,.27549347E-3,.8894E-4,0
GEOSCAN 2 (RS92S2),2025-155Q,2026-07-13T13:52:04.682208,15.31538531,.00091053,97.4561,163.5777,76.9555,283.2702,0,U,64890,999,8482,.2179207E-3,.6565E-4,0
GEOSCAN 5 (RS92S5),2025-155R,2026-07-13T15:11:57.005088,15.33948394,.00086534,97.4554,164.2717,90.7112,269.5122,0,U,64891,999,8487,.26365351E-3,.8588E-4,0
GEOSCAN 4 (RS92S4),2025-155S,2026-07-13T14:45:12.812832,15.34115272,.00085892,97.4559,164.3094,91.0116,269.2110,0,U,64892,999,8487,.27096272E-3,.8876E-4,0
